STARLINK-30592          
1 58102U 23161F   24108.45615868 -.00006707  00000+0 -22988-3 0  9990
2 58102  53.1179 134.6520 0001374  85.4324 274.6832 15.27990289 28482
STARLINK-30589          
1 58103U 23161G   24108.34357050  .00008360  00000+0  31386-3 0  9992
2 58103  53.0945 134.5966 0001523 104.5673 255.5495 15.28050072 28472
STARLINK-30617          
1 58104U 23161H   24108.46972059  .00001771  00000+0  76598-4 0  9992
2 58104  53.1002 133.9653 0001563  87.8132 272.3046 15.28022807 28497
STARLINK-30616          
1 58105U 23161J   24108.06791608  .00004797  00000+0  18572-3 0  9996
2 58105  53.0977 135.7250 0001916  87.1258 272.9960 15.28025296 28435
STARLINK-30612          
1 58106U 23161K   24108.46071087  .00021938  00000+0  80304-3 0  9991
2 58106  53.0983 133.9128 0001201  71.8521 288.2609 15.27990800 28348
STARLINK-30421          
1 58107U 23161L   24108.45133449  .00006097  00000+0  23246-3 0  9993
2 58107  53.0958 133.8428 0001595 106.3098 253.8076 15.28038936 28500
STARLINK-30611          
1 58108U 23161M   24108.38558862  .00031919  00000+0  11591-2 0  9996
2 58108  53.0903 134.1346 0001569  94.4407 265.6771 15.28046338 28481
STARLINK-30606          
1 58109U 23161N   24108.43710202 -.00008557  00000+0 -29695-3 0  9990
2 58109  53.1208 134.5510 0001356  86.9774 273.1381 15.27981833 28483
STARLINK-30596          
1 58110U 23161P   24108.37636694  .00024021  00000+0  87759-3 0  9994
2 58110  53.1207 134.8811 0000918  93.4149 266.6955 15.28000159 28470
STARLINK-30595          
1 58111U 23161Q   24108.36267050 -.00010489  00000+0 -36685-3 0  9997
2 58111  53.1219 134.7982 0001493  73.4699 286.6464 15.27991146 28470
STARLINK-30593          
1 58112U 23161R   24108.36699625  .00022440  00000+0  81940-3 0  9997
2 58112  53.1215 134.8208 0001644 101.8771 258.2412 15.28057842 28581
STARLINK-30353          
1 58113U 23161S   24108.22683306 -.00004883  00000+0 -16380-3 0  9991
2 58113  53.1275 135.3610 0001259  70.2282 289.8853 15.28008466 28452
STARLINK-30572          
1 58114U 23161T   24108.36734500 -.00004630  00000+0 -15466-3 0  9994
2 58114  53.1204 134.8242 0001236  94.4313 265.6828 15.28003619 28479
STARLINK-30580          
1 58115U 23161U   24108.11506787  .00002464  00000+0  10161-3 0  9990
2 58115  53.1236 136.0762 0001976  93.6018 266.5208 15.28023573 28439
STARLINK-30493          
1 58116U 23161V   24108.22716881  .00012661  00000+0  46879-3 0  9996
2 58116  53.1184 135.3595 0001742 105.5581 254.5611 15.28033016 28457
STARLINK-30601          
1 58117U 23161W   24108.21749557 -.00009994  00000+0 -34909-3 0  9990
2 58117  53.1127 135.2809 0001633  89.9759 270.1428 15.27973945 28456
STARLINK-30795          
1 58118U 23162A   24108.48167943 -.00009101  00000+0 -65991-3 0  9999
2 58118  43.0035 288.9842 0002501 282.8815  77.1748 15.02509741 28236
STARLINK-30765          
1 58119U 23162B   24108.49941600  .00008947  00000+0  67600-3 0  9995
2 58119  43.0022 289.0975 0001519 253.8378 106.2297 15.02567557 28324
STARLINK-30768          
1 58120U 23162C   24108.47834771 -.00002550  00000+0 -17377-3 0  9997
2 58120  43.0030 288.9579 0001709 278.1123  81.9526 15.02527928 28234
STARLINK-30799          
1 58121U 23162D   24108.49831867  .00010773  00000+0  81123-3 0  9997
2 58121  43.0010 289.0916 0001532 284.9737  75.0936 15.02540483 27105
STARLINK-30759          
1 58122U 23162E   24107.81134298  .00022432  00000+0  16698-2 0  9996
2 58122  43.0033 292.5542 0001521 266.4520  93.6149 15.02548661 28231
STARLINK-30781          
1 58123U 23162F   24107.81022861  .00030381  00000+0  22524-2 0  9996
2 58123  43.0029 292.5451 0001633 288.5995  71.4670 15.02568073 28222
STARLINK-30754          
1 58124U 23162G   24108.49498786  .00022005  00000+0  16390-2 0  9993
2 58124  43.0011 289.0648 0001566 258.0500 102.0166 15.02533259 28232
STARLINK-30766          
1 58125U 23162H   24108.00632926  .00010206  00000+0  76898-3 0  9997
2 58125  43.0059 291.4321 0001747 273.6371  86.4272 15.02559932 28251
STARLINK-30767          
1 58126U 23162J   24107.80357257  .00022832  00000+0  16991-2 0  9991
2 58126  43.0032 292.4925 0001622 266.3408  93.7249 15.02549492 28228
STARLINK-30790          
1 58127U 23162K   24108.46502318  .00007259  00000+0  55173-3 0  9997
2 58127  43.0019 288.8538 0001493 266.1280  93.9391 15.02544179 28323
STARLINK-30787          
1 58128U 23162L   24107.86338588  .00023998  00000+0  17849-2 0  9992
2 58128  43.0032 292.0818 0001483 277.0115  83.0558 15.02548239 28230
STARLINK-30756          
1 58129U 23162M   24108.49164104  .00005489  00000+0  42081-3 0  9996
2 58129  43.0011 289.0388 0002187 257.9106 102.1491 15.02559916 28317
STARLINK-30783          
1 58130U 23162N   24108.52484365  .00026416  00000+0  19635-2 0  9997
2 58130  43.0017 288.4438 0001282 264.1662  95.9034 15.02529668 28320
STARLINK-30757          
1 58131U 23162P   24108.52153766  .00042788  00000+0  31622-2 0  9996
2 58131  43.0017 288.4175 0000548 270.9088  89.1691 15.02548878 28294
STARLINK-30770          
1 58132U 23162Q   24108.48833018  .00032263  00000+0  23914-2 0  9999
2 58132  43.0015 289.0143 0001908 278.3349  81.7277 15.02552087 28327
STARLINK-30758          
1 58133U 23162R   24107.98857353  .00002435  00000+0  19521-3 0  9990
2 58133  43.0032 291.2988 0001556 275.4359  84.6306 15.02548182 28266
STARLINK-30761          
1 58134U 23162S   24108.48500787 -.00001695  00000+0 -11045-3 0  9995
2 58134  43.0006 288.9887 0001372 276.5512  83.5174 15.02523312 28324
STARLINK-30772          
1 58135U 23162T   24107.85351905  .00010875  00000+0  81860-3 0  9992
2 58135  43.0032 292.8520 0001534 269.4951  90.5715 15.02546592 28223
STARLINK-30776          
1 58136U 23162U   24108.51497513 -.00002993  00000+0 -20666-3 0  9994
2 58136  42.9997 289.2102 0000964 281.1431  78.9303 15.02523301 28325
STARLINK-30782          
1 58137U 23162V   24107.97981247  .00015931  00000+0  11911-2 0  9992
2 58137  43.0024 292.0778 0001493 256.6212 103.4464 15.02555617 28251
STARLINK-30769          
1 58138U 23162W   24108.50496651  .00010317  00000+0  77711-3 0  9997
2 58138  43.0014 289.1393 0001715 256.0595 104.0057 15.02563913 27113
STARLINK-30775          
1 58139U 23162X   24107.84354279  .00007846  00000+0  59546-3 0  9992
2 58139  43.0029 292.7760 0001987 278.7818  81.2800 15.02521860 28228
STARLINK-30780          
1 58140U 23162Y   24108.50165600 -.00002322  00000+0 -15692-3 0  9996
2 58140  43.0026 289.1135 0001220 267.5371  92.5331 15.02521029 27111
STARLINK-30802          
1 58150U 23166A   24108.51592623  .00025075  00000+0  91424-3 0  9996
2 58150  53.1162 188.9425 0001575  86.0860 274.0319 15.28042547 27386
STARLINK-30834          
1 58151U 23166B   24108.50678063 -.00020929  00000+0 -74617-3 0  9999
2 58151  53.0920 188.1088 0001297  95.0112 265.1035 15.27969860 27387
STARLINK-30833          
1 58152U 23166C   24108.51627232  .00106996  00000+0  38150-2 0  9991
2 58152  53.1171 188.9422 0001188  95.7544 264.3591 15.28062633 27372
STARLINK-30831          
1 58153U 23166D   24108.50187567 -.00057738  00000+0 -20921-2 0  9991
2 58153  53.1199 188.8723 0002027  59.5767 300.5432 15.27954021 27382
STARLINK-30797          
1 58154U 23166E   24108.50644149 -.00015386  00000+0 -54461-3 0  9996
2 58154  53.0884 188.1019 0001674  92.9142 267.2049 15.27977281 27161
STARLINK-30804          
1 58155U 23166F   24108.44617444 -.00015061  00000+0 -53279-3 0  9994
2 58155  53.1157 189.2233 0001207  93.9921 266.1216 15.27981717 27370
STARLINK-30784          
1 58156U 23166G   24108.52093835 -.00007666  00000+0 -26441-3 0  9999
2 58156  53.1170 188.9793 0001468  78.6168 281.4996 15.28016241 27215
STARLINK-30803          
1 58157U 23166H   24108.49720560 -.00004629  00000+0 -15462-3 0  9995
2 58157  53.1182 188.8281 0001500  71.0505 289.0656 15.28005689 27153
STARLINK-30829          
1 58158U 23166J   24108.49754733 -.00017716  00000+0 -62934-3 0  9992
2 58158  53.1191 188.8419 0001238  72.1774 287.9360 15.27972982 27387
STARLINK-30788          
1 58159U 23166K   24108.49285944 -.00020761  00000+0 -74028-3 0  9997
2 58159  53.1186 188.8120 0000794  87.8982 272.2108 15.27962411 27216
STARLINK-30779          
1 58160U 23166L   24108.48784033 -.00013070  00000+0 -46027-3 0  9994
2 58160  53.1206 188.7785 0003443  22.4830 337.6320 15.27993208 27375
STARLINK-30773          
1 58161U 23166M   24108.48817028 -.00011144  00000+0 -39041-3 0  9994
2 58161  53.1197 188.7761 0001482  36.7760 323.3341 15.28007107 27381
STARLINK-30816          
1 58162U 23166N   24108.48317611 -.00018152  00000+0 -64552-3 0  9999
2 58162  53.1241 188.7389 0001502  59.8455 300.2693 15.27956293 27380
STARLINK-30763          
1 58163U 23166P   24108.51069706  .00022026  00000+0  80622-3 0  9992
2 58163  53.0701 185.1296 0001623  79.6978 280.4204 15.27989012 27420
STARLINK-30815          
1 58164U 23166Q   24108.54424198 -.00011156  00000+0 -39114-3 0  9990
2 58164  53.1221 188.4283 0001334  78.8033 281.3116 15.27980868 27391
STARLINK-30814          
1 58165U 23166R   24108.52986414 -.00007863  00000+0 -27169-3 0  9990
2 58165  53.1196 188.3248 0001252  80.4269 279.6872 15.27999020 27380
STARLINK-30789          
1 58166U 23166S   24108.53922302 -.00019142  00000+0 -68124-3 0  9997
2 58166  53.1206 188.3977 0001078 103.4117 256.7002 15.27968908 27388
STARLINK-30811          
1 58167U 23166T   24108.53488891 -.00022601  00000+0 -80744-3 0  9994
2 58167  53.1234 188.3551 0001027 114.0484 246.0623 15.27952649 27226
STARLINK-30812          
1 58168U 23166U   24108.53455352  .00046317  00000+0  16761-2 0  9996
2 58168  53.1196 188.3619 0001157 104.0868 256.0260 15.27986364 27227
STARLINK-30771          
1 58169U 23166V   24108.53019257 -.00034813  00000+0 -12516-2 0  9991
2 58169  53.1158 188.3390 0001217  84.1222 275.9915 15.27978797 27386
